STARLINK-33673          
1 63284U 25053V   25085.91668981 -.01027967  00000+0 -58220-2 0  9998
2 63284  43.0003  53.4533 0001126 268.3348 265.8166 15.80787344  3039
STARLINK-33662          
1 63285U 25053W   25085.91668981 -.01031520  00000+0 -58418-2 0  9998
2 63285  43.0006  53.4478 0001061 269.9756 266.1386 15.80798602  2989
STARLINK-33613          
1 63286U 25053X   25085.91668981 -.00943306  00000+0 -52739-2 0  9992
2 63286  43.0006  53.4938 0000955 269.2930 248.8992 15.80844611  3038
STARLINK-33680          
1 63287U 25053Y   25085.91668981 -.00952522  00000+0 -53285-2 0  9990
2 63287  43.0008  53.4887 0001024 275.1332 245.0540 15.80855488  2989
STARLINK-11568 [DTC]    
1 63307U 25057A   25085.91668981 -.00901800  00000+0 -36604-2 0  9996
2 63307  43.0031 203.0844 0002022 284.2082 178.1895 15.87362854  2397
STARLINK-11575 [DTC]    
1 63308U 25057B   25085.91668981 -.00902511  00000+0 -36486-2 0  9995
2 63308  43.0031 203.0802 0001955 287.4575 176.6130 15.87445561  2345
STARLINK-11585 [DTC]    
1 63309U 25057C   25085.91668981 -.00903242  00000+0 -36292-2 0  9993
2 63309  43.0032 203.0747 0001858 279.0479 187.1671 15.87570949  2499
STARLINK-11587 [DTC]    
1 63310U 25057D   25085.91668981 -.00894568  00000+0 -35665-2 0  9998
2 63310  43.0030 203.0689 0001967 283.9678 184.6372 15.87704960  2021
STARLINK-11589 [DTC]    
1 63311U 25057E   25085.91668981 -.00892468  00000+0 -35315-2 0  9998
2 63311  43.0032 203.0627 0002054 280.2921 190.7372 15.87848853  2348
STARLINK-11650 [DTC]    
1 63312U 25057F   25085.91668981 -.00893272  00000+0 -35164-2 0  9995
2 63312  43.0032 203.0580 0002110 280.9331 191.9382 15.87953216  2492
STARLINK-11648 [DTC]    
1 63313U 25057G   25085.91668981 -.00888528  00000+0 -34711-2 0  9991
2 63313  43.0032 203.0519 0002143 276.2487 199.0200 15.88093826  2021
STARLINK-11640 [DTC]    
1 63314U 25057H   25085.91668981 -.00879927  00000+0 -34147-2 0  9998
2 63314  43.0030 203.0469 0002018 284.5389 192.8307 15.88207593  2249
STARLINK-11652 [DTC]    
1 63315U 25057J   25085.91668981 -.00853311  00000+0 -32816-2 0  9999
2 63315  43.0033 203.0406 0002020 284.1513 195.6072 15.88326373  2497
STARLINK-11645 [DTC]    
1 63316U 25057K   25085.91668981 -.00875691  00000+0 -33544-2 0  9994
2 63316  43.0032 203.0360 0002046 280.3341 201.3100 15.88454916  2493
STARLINK-11633 [DTC]    
1 63317U 25057L   25085.91668981 -.00867634  00000+0 -32985-2 0  9991
2 63317  43.0034 203.0305 0001979 285.0519 198.8958 15.88586817  2440
STARLINK-11593 [DTC]    
1 63318U 25057M   25085.91668981 -.00866510  00000+0 -32787-2 0  9994
2 63318  43.0033 203.0262 0001910 283.6643 201.9739 15.88678263  2494
STARLINK-11588 [DTC]    
1 63319U 25057N   25085.91668981 -.00861215  00000+0 -32332-2 0  9998
2 63319  43.0033 203.0202 0002026 281.3514 206.6905 15.88819761  2330
STARLINK-33671          
1 63320U 25057P   25085.91668981 -.00842687  00000+0 -31307-2 0  9993
2 63320  43.0041 203.0104 0002064 271.7397 220.2482 15.88983843  2500
STARLINK-33650          
1 63321U 25057Q   25085.91668981 -.00848108  00000+0 -31451-2 0  9998
2 63321  43.0034 203.0075 0002228 280.8177 212.5661 15.89030072  2241
STARLINK-33689          
1 63322U 25057R   25085.91668981 -.00846127  00000+0 -31262-2 0  9998
2 63322  43.0043 203.0022 0002587 269.4447 225.8806 15.89094159  2508
STARLINK-33607          
1 63323U 25057S   25085.91668981 -.00834281  00000+0 -30715-2 0  9999
2 63323  43.0041 202.9985 0002401 275.9855 220.9486 15.89139605  2149
STARLINK-33619          
1 63324U 25057T   25085.91668981 -.00852502  00000+0 -31330-2 0  9990
2 63324  43.0040 202.9931 0002122 279.2180 219.6984 15.89218152  2501
STARLINK-33612          
1 63325U 25057U   25085.91668981 -.00873009  00000+0 -32036-2 0  9990
2 63325  43.0040 202.9884 0002341 275.4755 225.1977 15.89290668  2504
STARLINK-33672          
1 63326U 25057V   25085.91668981 -.00855861  00000+0 -31255-2 0  9999
2 63326  43.0040 202.9832 0002120 276.9225 225.8097 15.89349710  2504
STARLINK-33625          
1 63327U 25057W   25085.91668981 -.00862951  00000+0 -31446-2 0  9990
2 63327  43.0040 202.9792 0002194 277.4165 226.9055 15.89406914  2506
STARLINK-33699          
1 63328U 25057X   25085.91668981 -.00854999  00000+0 -31032-2 0  9995
2 63328  43.0037 202.9746 0002378 274.4042 231.7987 15.89465386  2233
STARLINK-33674          
1 63329U 25057Y   25085.91668981 -.00863226  00000+0 -31247-2 0  9997
2 63329  43.0039 202.9696 0002446 276.1337 231.8253 15.89535114  2506
